[{"OBJECT_NAME":"HULIANWANG DIGUI-124","OBJECT_ID":"2025-295F","EPOCH":"2026-03-09T18:55:48.196992","MEAN_MOTION":13.43834022,"ECCENTRICITY":9.382e-5,"INCLINATION":50.0006,"RA_OF_ASC_NODE":22.392,"ARG_OF_PERICENTER":27.9448,"MEAN_ANOMALY":332.1481,"EPHEMERIS_TYPE":0,"CLASSIFICATION_TYPE":"U","NORAD_CAT_ID":67064,"ELEMENT_SET_NO":999,"REV_AT_EPOCH":1227,"BSTAR":0.00011694892,"MEAN_MOTION_DOT":-6.1e-7,"MEAN_MOTION_DDOT":0},{"OBJECT_NAME":"THORAD DELTA 1 DEB","OBJECT_ID":"1974-089DU","EPOCH":"2026-03-09T21:30:08.426304","MEAN_MOTION":13.52640428,"ECCENTRICITY":0.02800466,"INCLINATION":103.0102,"RA_OF_ASC_NODE":55.2201,"ARG_OF_PERICENTER":154.2211,"MEAN_ANOMALY":207.3176,"EPHEMERIS_TYPE":0,"CLASSIFICATION_TYPE":"U","NORAD_CAT_ID":9695,"ELEMENT_SET_NO":999,"REV_AT_EPOCH":42691,"BSTAR":0.0016352715,"MEAN_MOTION_DOT":1.321e-5,"MEAN_MOTION_DDOT":0}]
